[
    {
        "Altitude(m)": 607910.9909667511,
        "Argument of Periapsis(deg)": 0.0,
        "Eccentricity": 0.0,
        "Inclination(deg)": 60.0,
        "Latitude(deg)": -14.292842338184117,
        "Longitude(deg)": 128.44263792986413,
        "Mean Anomaly(deg)": 196.36359999999996,
        "RAAN(deg)": 40.0,
        "Satellite Name": "Test1 188",
        "Satellite Number": 188,
        "Semi-Major Axis(m)": 6980739.136638005,
        "Time(s)": 0
    },
    {
        "Altitude(m)": 608060.2239814159,
        "Argument of Periapsis(deg)": 0.00010418945913296404,
        "Eccentricity": 0.0,
        "Inclination(deg)": 60.0,
        "Latitude(deg)": -14.82650393885293,
        "Longitude(deg)": 128.7312468615009,
        "Mean Anomaly(deg)": 196.98370614546184,
        "RAAN(deg)": 39.99957995086026,
        "Satellite Name": "Test1 188",
        "Satellite Number": 188,
        "Semi-Major Axis(m)": 6980739.136638005,
        "Time(s)": 10
    }
]